ONEWEB-0126             
1 47272U 20100Q   23244.37444181 -.00001193  00000+0 -33539-2 0  9992
2 47272  87.8948 193.3998 0002323  98.8200 261.3191 13.12402252130938
ONEWEB-0127             
1 47273U 20100R   23244.26112131 -.00000163  00000+0 -48718-3 0  9990
2 47273  87.9046 193.3992 0002105  77.8944 282.2420 13.12439347130946
ONEWEB-0128             
1 47274U 20100S   23243.29122270  .00000258  00000+0  68197-3 0  9994
2 47274  87.9051 193.5755 0002320  79.2648 280.8742 13.12441700130833
ONEWEB-0129             
1 47275U 20100T   23244.11076860 -.00000355  00000+0 -10210-2 0  9992
2 47275  87.8998 193.4583 0003097  49.0977 311.0420 13.12442801130870
ONEWEB-0130             
1 47276U 20100U   23244.13619354 -.00000125  00000+0 -38263-3 0  9990
2 47276  87.8979 193.4460 0002146  81.4197 278.7175 13.12443679130849
ONEWEB-0131             
1 47277U 20100V   23244.13406533 -.00003089  00000+0 -86236-2 0  9998
2 47277  87.9088 193.3990 0001998  78.4261 281.7092 13.12456597130880
ONEWEB-0132             
1 47278U 20100W   23244.08749933 -.00000859  00000+0 -24243-2 0  9999
2 47278  87.9062 193.4112 0002023  81.0173 279.1184 13.12451193130770
ONEWEB-0133             
1 47279U 20100X   23244.10441243  .00000560  00000+0  15210-2 0  9997
2 47279  87.9045 193.4356 0001941  84.6726 275.4623 13.12437188130936
